0 MERIDIAN 7
1 40296U 14069A   19166.45989189  .00000195  00000-0  00000+0 0  9991
2 40296  62.8887 163.1647 6799711 273.9560 320.8059  2.00626066 33890
0 MERIDIAN 7
1 40296U 14069A   19165.86682115 +.00000202 +00000-0 +00000-0 0  9994
2 40296 062.8892 163.2263 6799690 273.9562 252.4431 02.00625781033885
0 FREGAT R/B
1 40297U 14069B   19165.89161616 -.00001076  00000-0 -26028-1 0  9997
2 40297  62.8953 156.0773 6873498 274.9988  16.1750  2.00517464 33889
0 ASNARO
1 40298U 14070A   19166.44359002  .00000562  00000-0  29648-4 0  9991
2 40298  97.4418 249.3652 0001926  96.1963 324.0277 15.19530800255459
0 ASNARO
1 40298U 14070A   19166.78263361  .00000547  00000-0  28926-4 0  9991
2 40298  97.4419 249.6996 0002012  96.4045  17.3120 15.19531221255508
0 ASNARO
1 40298U 14070A   19165.92643127 +.00000578 +00000-0 +30396-4 0  9996
2 40298 097.4415 248.8548 0001941 095.9741 017.0351 15.19530166255370
0 ASNARO
1 40298U 14070A   19166.05973443  .00000567  00000-0  29879-4 0  9990
2 40298  97.4416 248.9862 0001964  96.7406  25.0132 15.19530277255394
0 HODOYOSHI 1
1 40299U 14070B   19166.15942650  .00000390  00000-0  19320-4 0  9992
2 40299  97.3488 245.9868 0014358  58.2577 359.3730 15.23359441255731
0 HODOYOSHI 1
1 40299U 14070B   19166.48766297  .00000354  00000-0  17809-4 0  9999
2 40299  97.3489 246.3085 0014347  57.2740 359.2817 15.23359563255782
0 HODOYOSHI 1
1 40299U 14070B   19166.82771065  .00000367  00000-0  18348-4 0  9999
2 40299  97.3488 246.6413 0014353  56.2065  64.0078 15.23359992255837
0 CHUBUSAT 1
1 40300U 14070C   19166.77837205  .00000461  00000-0  23034-4 0  9998
2 40300  97.3277 241.0368 0021382  67.3431  80.9213 15.22078251255578
0 CHUBUSAT 1
1 40300U 14070C   19166.29617104  .00000544  00000-0  26635-4 0  9991
2 40300  97.3279 240.5673 0021467  68.7160 319.0330 15.22078339255507
0 CHUBUSAT 1
1 40300U 14070C   19166.10534090  .00000568  00000-0  27680-4 0  9990
2 40300  97.3277 240.3815 0021500  69.5861 353.1847 15.22078253255479
0 QSAT-EOS
1 40301U 14070D   19166.15748241  .00001162  00000-0  47686-4 0  9990
2 40301  97.3267 243.4292 0027295  53.8519   1.9592 15.25906005255759
0 QSAT-EOS
1 40301U 14070D   19166.82579660  .00001202  00000-0  49243-4 0  9997
2 40301  97.3266 244.0840 0027265  51.7530  72.9260 15.25907994255850
0 QSAT-EOS
1 40301U 14070D   19166.48540718  .00001176  00000-0  48218-4 0  9992
2 40301  97.3267 243.7506 0027275  52.6642   3.3658 15.25906958255804
0 TSUBAME
1 40302U 14070E   19166.53040389  .00000377  00000-0  21605-4 0  9991
2 40302  97.2859 225.2336 0040355 102.5858   4.8324 15.17631063254779
0 TSUBAME
1 40302U 14070E   19166.85675348  .00000331  00000-0  19402-4 0  9997
2 40302  97.2859 225.5476 0040348 101.4989 347.7800 15.17631036254826
0 TSUBAME
1 40302U 14070E   19166.19682289  .00000433  00000-0  24343-4 0  9999
2 40302  97.2859 224.9124 0040361 103.8291 342.2454 15.17631052254728
0 SL-24 R/B
1 40303U 14070F   19166.70383361 -.00000090  00000-0 -10895-4 0  9994
2 40303  97.1672 105.0024 0956872 225.9939 125.8382 13.12976061220731
0 SL-24 R/B
1 40303U 14070F   19165.78932387 -.00000070 +00000-0 -60758-5 0  9991
2 40303 097.1671 104.3729 0956836 228.3225 123.2107 13.12976009220570
0 YAOGAN 23
1 40305U 14071A   19166.90339880  .00000271  00000-0  16682-4 0  9995
2 40305  97.4911 104.3680 0001246  60.1686  11.4176 15.17889692253979
0 YAOGAN 23
1 40305U 14071A   19166.58176019  .00000234  00000-0  14832-4 0  9996
2 40305  97.4911 104.0498 0001272  58.3432  56.7952 15.17889101253924
0 YAOGAN 23
1 40305U 14071A   19166.18537617  .00000268  00000-0  16547-4 0  9999
2 40305  97.4911 103.6573 0001301  55.3873  55.1277 15.17889038253867
0 CZ-2C R/B
1 40306U 14071B   19166.46584125  .00001940  00000-0  45490-4 0  9994
2 40306  97.2853 106.4235 0018309  66.0174 294.2989 15.43179735257096
0 CZ-2C R/B
1 40306U 14071B   19165.81740439 +.00002104 +00000-0 +49175-4 0  9991
2 40306 097.2852 105.7748 0018333 068.1179 292.2016 15.43177982256967
0 YAOGAN 24
1 40310U 14072A   19165.88401065 +.00000073 +00000-0 +17773-4 0  9995
2 40310 097.8557 292.0300 0016037 232.9194 127.0542 14.76288215246157
0 YAOGAN 24
1 40310U 14072A   19166.76513452  .00000051  00000-0  14549-4 0  9991
2 40310  97.8558 292.8869 0016066 229.7595 130.2216 14.76288168246282
0 YAOGAN 24
1 40310U 14072A   19166.08734694  .00000061  00000-0  16098-4 0  9991
2 40310  97.8558 292.2278 0016040 232.2485 127.7254 14.76288095246180
0 YAOGAN 24
1 40310U 14072A   19166.42624078  .00000056  00000-0  15277-4 0  9995
2 40310  97.8558 292.5575 0016066 231.0356 128.9420 14.76288126246234
0 COSMOS 2501 (GLONASS)
1 40315U 14075A   19165.99941376 -.00000050  00000-0  00000+0 0  9995
2 40315  64.0445 279.7698 0016162 204.4202 179.9319  2.13098733 35324
0 COSMOS 2501 (GLONASS)
1 40315U 14075A   19165.68168021 -.00000052 +00000-0 +00000-0 0  9992
2 40315 064.0446 279.7809 0016160 204.4256 296.1756 02.13098736035315
0 FREGAT R/B
1 40316U 14075B   19164.97969882 -.00000059 +00000-0 +00000-0 0  9995
2 40316 064.0631 282.4199 0057615 130.2420 230.2585 02.08635580034545
0 FREGAT R/B
1 40316U 14075B   19166.41761637 -.00000051  00000-0  00000+0 0  9995
2 40316  64.0623 282.3717 0057603 130.2477 230.2552  2.08635602 34572
0 IRIDIUM 91 DEB
1 40326U 02005J   19165.84994615 +.00009515 +00000-0 +89149-3 0  9994
2 40326 086.4154 304.3425 0020148 209.8048 150.2034 14.93777165243725
0 IRIDIUM 91 DEB
1 40326U 02005J   19166.11790305  .00009164  00000-0  85843-3 0  9992
2 40326  86.4154 304.2201 0020263 208.9136 151.0972 14.93780785243915
0 IRIDIUM 91 DEB
1 40327U 02005K   19166.11865394  .00001396  00000-0  31081-3 0  9998
2 40327  86.3878 324.0338 0009036 234.3992 125.6374 14.56270024240062
0 IRIDIUM 91 DEB
1 40327U 02005K   19165.84380212 +.00001432 +00000-0 +31876-3 0  9991
2 40327 086.3878 324.1531 0008980 235.5555 124.4805 14.56269411239919
0 GSAT 16
1 40332U 14078A   19165.80542447 +.00000076 +00000-0 +00000-0 0  9991
2 40332 000.0835 105.5535 0007835 340.2506 162.0315 01.00271437016467
0 GSAT 16
1 40332U 14078A   19166.12993999  .00000077  00000-0  00000+0 0  9999
2 40332   0.0843 105.4084 0007848 341.0745 278.4976  1.00271497 16609
0 GSAT 16
1 40332U 14078A   19166.75327476  .00000077  00000-0  00000+0 0  9999
2 40332   0.0857 105.2898 0007858 342.0873 142.6127  1.00268947 16605
0 DIRECTV 14
1 40333U 14078B   19166.60604691 -.00000133  00000-0  00000+0 0  9995
2 40333   0.0181 338.1787 0000935  22.4401  21.8911  1.00271839 16596
0 DIRECTV 14
1 40333U 14078B   19165.84642538 -.00000133 +00000-0 +00000-0 0  9993
2 40333 000.0189 335.4785 0000878 023.8588 108.9591 01.00271923016482
0 ARIANE 5 R/B
1 40334U 14078C   19165.46504507 +.00000887 +00000-0 +22929-3 0  9997
2 40334 006.0476 195.5895 7134548 184.6823 160.4508 02.46359060039455
0 ARIANE 5 DEB (SYLDA)
1 40335U 14078D   19165.72356372  .32967011 -27597-4  13700-2 0  9999
2 40335   6.3779 279.6249 0562076   8.7988  48.3711 15.19120532 62049
0 CBERS-4
1 40336U 14079A   19166.12671925 -.00000007  00000-0  12932-4 0  9992
2 40336  98.6037 234.6870 0001763  94.8086 265.3306 14.35390822236848
0 CBERS-4
1 40336U 14079A   19165.91759681 -.00000008 +00000-0 +12628-4 0  9997
2 40336 098.6037 234.4783 0001773 095.0191 265.1185 14.35390787236810
0 CBERS-4
1 40336U 14079A   19166.75408578 -.00000012  00000-0  11230-4 0  9999
2 40336  98.6037 235.3126 0001777  93.9205 266.2181 14.35390815236931
0 CBERS-4
1 40336U 14079A   19166.40554877 -.00000009  00000-0  12512-4 0  9995
2 40336  98.6037 234.9650 0001771  94.3632 265.7755 14.35390831236884
0 CZ-4B R/B
1 40337U 14079B   19165.83865775 +.00000081 +00000-0 +12736-4 0  9991
2 40337 098.5091 019.9244 0178344 064.3490 297.6028 14.89221385245517
0 CZ-4B R/B
1 40337U 14079B   19166.17460339  .00000078  00000-0  12480-4 0  9998
2 40337  98.5090  20.2855 0178337  63.2677 298.6667 14.89221529245583
0 YAOGAN 25A
1 40338U 14080A   19165.92397093 -.00000230 +00000-0 -22426-3 0  9991
2 40338 063.4075 052.0902 0136741 358.9569 001.1152 13.45182014221576
0 YAOGAN 25A
1 40338U 14080A   19166.89038380 -.00000269  00000-0 -28678-3 0  9996
2 40338  63.4080  49.6066 0137108 358.9662   1.1092 13.45181592221705
0 YAOGAN 25B
1 40339U 14080B   19165.92421414 -.00000198 +00000-0 -17237-3 0  9994
2 40339 063.4071 052.1426 0136849 358.9364 001.1350 13.45181469221570
0 YAOGAN 25B
1 40339U 14080B   19166.22157135 -.00000113  00000-0 -36564-4 0  9996
2 40339  63.4071  51.3790 0136856 358.9410   1.1307 13.45181832221616
0 YAOGAN 25C
1 40340U 14080C   19165.92413453 -.00000258 +00000-0 -26926-3 0  9992
2 40340 063.4054 052.8083 0136764 359.1674 000.9104 13.45181332221553
0 YAOGAN 25C
1 40340U 14080C   19166.89054668 -.00000209  00000-0 -19028-3 0  9999
2 40340  63.4058  50.3261 0136934 359.2047   0.8741 13.45181493221680
0 CZ-4C R/B
1 40341U 14080D   19166.66202087 -.00000064  00000-0  27562-4 0  9996
2 40341  63.4557 238.5426 0291344   0.4406 359.6836 13.69008705225571
0 CZ-4C R/B
1 40341U 14080D   19165.56633549 -.00000059 +00000-0 +31977-4 0  9994
2 40341 063.4558 241.4727 0291231 000.4479 359.6766 13.69008742225353
0 CZ-4C DEB
1 40342U 14080E   19165.89625405 -.00000079 +00000-0 +17079-4 0  9992
2 40342 063.4073 061.9121 0150597 002.6131 357.5648 13.43935966221268
0 CZ-4C DEB
1 40343U 14080F   19165.90369016 -.00000069 +00000-0 +32913-4 0  9991
2 40343 063.4069 059.1812 0152315 003.2244 356.9727 13.44278500221336
0 YAMAL 401
1 40345U 14082A   19165.81240334 -.00000236 +00000-0 +00000-0 0  9990
2 40345 000.0108 013.2111 0000529 168.6031 103.4023 01.00267138016252
0 YAMAL 401
1 40345U 14082A   19166.67381156 -.00000236  00000-0  00000+0 0  9992
2 40345   0.0114  13.9737 0000967 151.0702  71.1313  1.00270935 16754
